full_name,pdes,a,e,i,om,w,primary_type,detail_type1,detail_type2
 31210 (1998 BX7),31210,2.605,0.5023,8.96,144.92,271.34,Asteroid,NEO,Amor
 31221 (1998 BP26),31221,1.723,0.2571,20.22,331.03,186.82,Asteroid,NEO,Amor
 31345 (1998 PG),31345,2.016,0.3914,6.5,222.69,156.19,Asteroid,NEO,Amor
 31346 (1998 PB1),31346,2.029,0.4298,5.96,299.73,350.51,Asteroid,NEO,Amor
 32906 (1994 RH),32906,2.248,0.4401,18.94,331.17,92.31,Asteroid,NEO,Amor
 34613 (2000 UR13),34613,2.069,0.3873,6.18,315.29,286.14,Asteroid,NEO,Amor
 35432 (1998 BG9),35432,2.501,0.5451,13.14,115.32,1.6,Asteroid,NEO,Amor
 36017 (1999 ND43),36017,1.524,0.3143,5.55,332.08,52.11,Asteroid,NEO,Amor
 36183 (1999 TX16),36183,1.551,0.3325,38.22,54.65,311.19,Asteroid,NEO,Amor
 37336 (2001 RM),37336,2.253,0.4835,36.67,223.64,118.02,Asteroid,NEO,Amor
 38091 (1999 JT3),38091,2.169,0.4013,9.33,64.82,225.09,Asteroid,NEO,Amor
 39565 (1992 SL),39565,1.642,0.3342,8.6,0.96,344.78,Asteroid,NEO,Amor
  3122 Florence (1981 ET3),3122,1.769,0.4232,22.14,336.06,27.87,Asteroid,PHA,Amor
  3757 Anagolay (1982 XB),3757,1.835,0.4456,3.87,74.93,17.22,Asteroid,PHA,Amor
  6491 (1991 OA),6491,2.501,0.5903,5.95,301.89,323.64,Asteroid,PHA,Amor
 38071 (1999 GU3),38071,2.089,0.5077,12.74,195.49,8.82,Asteroid,PHA,Amor
  1685 Toro (1948 OA),1685,1.368,0.436,9.38,274.22,127.23,Asteroid,NEO,Apollo
  1863 Antinous (1948 EA),1863,2.259,0.6058,18.4,346.42,268.07,Asteroid,NEO,Apollo
  1864 Daedalus (1971 FA),1864,1.461,0.6145,22.22,6.61,325.67,Asteroid,NEO,Apollo
  1865 Cerberus (1971 UA),1865,1.08,0.467,16.1,212.89,325.28,Asteroid,NEO,Apollo
  1866 Sisyphus (1972 XA),1866,1.894,0.5383,41.2,63.46,293.1,Asteroid,NEO,Apollo
  2063 Bacchus (1977 HB),2063,1.078,0.3494,9.43,33.06,55.35,Asteroid,NEO,Apollo
  2212 Hephaistos (1978 SB),2212,2.16,0.8373,11.54,27.5,209.41,Asteroid,NEO,Apollo
  2329 Orthos (1976 WA),2329,2.41,0.6537,24.47,169.28,146.08,Asteroid,NEO,Apollo
  3103 Eger (1982 BB),3103,1.404,0.3543,20.93,129.74,254.09,Asteroid,NEO,Apollo
  3360 Syrinx (1981 VA),3360,2.467,0.7456,21.14,242.48,63.56,Asteroid,NEO,Apollo
  3752 Camillo (1985 PA),3752,1.414,0.3015,55.56,147.96,312.23,Asteroid,NEO,Apollo
  3838 Epona (1986 WA),3838,1.505,0.7023,29.2,235.47,49.73,Asteroid,NEO,Apollo
  4197 Morpheus (1982 TA),4197,2.294,0.7724,12.6,7.01,122.57,Asteroid,NEO,Apollo
  4257 Ubasti (1987 QA),4257,1.647,0.4683,40.72,169.16,278.94,Asteroid,NEO,Apollo
  4341 Poseidon (1987 KF),4341,1.834,0.68,11.84,108.04,15.84,Asteroid,NEO,Apollo
  4544 Xanthus (1989 FB),4544,1.042,0.2502,14.14,23.96,333.86,Asteroid,NEO,Apollo
  5131 (1990 BG),5131,1.486,0.569,36.43,110.38,135.83,Asteroid,NEO,Apollo
  5143 Heracles (1991 VL),5143,1.835,0.7719,9,309.36,227.96,Asteroid,NEO,Apollo
  5496 (1973 NA),5496,2.435,0.6353,68,101.05,118.01,Asteroid,NEO,Apollo
  5645 (1990 SP),5645,1.355,0.3872,13.51,45.71,48.27,Asteroid,NEO,Apollo
  5660 (1974 MA),5660,1.786,0.7619,38.13,302.15,127.01,Asteroid,NEO,Apollo
  5731 Zeus (1988 VP4),5731,2.266,0.6519,11.2,280.59,218.45,Asteroid,NEO,Apollo
  5786 Talos (1991 RC),5786,1.081,0.8269,23.24,161.3,8.38,Asteroid,NEO,Apollo
  5828 (1991 AM),5828,1.698,0.6949,30.12,125.42,152.77,Asteroid,NEO,Apollo
  6047 (1991 TB1),6047,1.455,0.3521,23.48,6.08,103.81,Asteroid,NEO,Apollo
  6053 (1993 BW3),6053,2.147,0.5287,21.58,318.24,74.91,Asteroid,NEO,Apollo
  6063 Jason (1984 KB),6063,2.221,0.7625,4.96,169.06,337.6,Asteroid,NEO,Apollo
  6455 (1992 HE),6455,2.241,0.5724,37.34,26.9,262.81,Asteroid,NEO,Apollo
  6611 (1993 VW),6611,1.696,0.4847,8.7,230.77,281.63,Asteroid,NEO,Apollo
  7025 (1993 QA),7025,1.476,0.3149,12.61,146.6,323.47,Asteroid,NEO,Apollo
  7092 Cadmus (1992 LC),7092,2.544,0.6944,17.78,56.78,94.78,Asteroid,NEO,Apollo
  7350 (1993 VA),7350,1.356,0.3911,7.26,133.11,336.66,Asteroid,NEO,Apollo
  7888 (1993 UC),7888,2.437,0.6633,26.09,165.9,323.04,Asteroid,NEO,Apollo
  7889 (1994 LX),7889,1.262,0.3462,36.91,111.27,349.17,Asteroid,NEO,Apollo
  8035 (1992 TB),8035,1.342,0.4626,28.31,185.62,6.1,Asteroid,NEO,Apollo
  8176 (1991 WA),8176,1.575,0.6431,39.59,66.5,241.9,Asteroid,NEO,Apollo
  8201 (1994 AH2),8201,2.538,0.7067,9.55,164.1,25.11,Asteroid,NEO,Apollo
  8507 (1991 CB1),8507,1.687,0.5945,14.59,317.41,345.79,Asteroid,NEO,Apollo
  9058 (1992 JB),9058,1.557,0.3597,16.09,218.3,307.1,Asteroid,NEO,Apollo
  9162 Kwiila (1987 OA),9162,1.497,0.5955,9.01,180.01,235.8,Asteroid,NEO,Apollo
  9202 (1993 PB),9202,1.424,0.6077,40.8,315.9,212.36,Asteroid,NEO,Apollo
 10145 (1994 CK1),10145,1.901,0.6329,4.55,328.4,27.41,Asteroid,NEO,Apollo
 10165 (1995 BL2),10165,1.235,0.5037,23.9,312.43,348.46,Asteroid,NEO,Apollo
 10563 Izhdubar (1993 WD),10563,1.007,0.2663,63.46,56.56,132.19,Asteroid,NEO,Apollo
 10636 (1998 QK56),10636,1.885,0.5126,13.58,172.94,286.31,Asteroid,NEO,Apollo
 11066 Sigurd (1992 CC1),11066,1.392,0.3755,36.88,349.23,22.01,Asteroid,NEO,Apollo
 11311 Peleus (1993 XN2),11311,2.117,0.5359,25.49,59.32,313.42,Asteroid,NEO,Apollo
 11405 (1999 CV3),11405,1.46,0.3939,22.86,141.26,96.38,Asteroid,NEO,Apollo
 11885 Summanus (1990 SS),11885,1.703,0.4745,19.43,359.78,116.22,Asteroid,NEO,Apollo
 12711 Tukmit (1991 BB),12711,1.186,0.2721,38.49,294.97,322.87,Asteroid,NEO,Apollo
 16816 (1997 UF9),16816,1.443,0.6041,25.92,37.15,157.97,Asteroid,NEO,Apollo
 16834 (1997 WU22),16834,1.468,0.4422,15.99,260.77,334.33,Asteroid,NEO,Apollo
 17181 (1999 UM3),17181,2.37,0.6739,10.65,113.56,36.79,Asteroid,NEO,Apollo
 17182 (1999 VU),17182,1.387,0.5536,9.27,333.51,203.2,Asteroid,NEO,Apollo
 17188 (1999 WC2),17188,2.216,0.6371,29.45,269.77,287.26,Asteroid,NEO,Apollo
 17511 (1992 QN),17511,1.19,0.3588,9.58,355.9,202.42,Asteroid,NEO,Apollo
 20236 (1998 BZ7),20236,2.035,0.5602,6.5,111.31,104.44,Asteroid,NEO,Apollo
 20429 (1998 YN1),20429,1.556,0.4642,6.3,61.75,147.62,Asteroid,NEO,Apollo
 20826 (2000 UV13),20826,2.419,0.6361,31.92,347.29,198.69,Asteroid,NEO,Apollo
 22099 (2000 EX106),22099,1.104,0.2763,9.85,136.44,186.57,Asteroid,NEO,Apollo
 22771 (1999 CU3),22771,1.576,0.5239,11.4,338.95,305.8,Asteroid,NEO,Apollo
 24443 (2000 OG),24443,2.311,0.8223,25.75,178.12,231.17,Asteroid,NEO,Apollo
 24445 (2000 PM8),24445,2.21,0.546,23.78,203.16,219.07,Asteroid,NEO,Apollo
 24761 Ahau (1993 BW2),24761,1.335,0.3058,21.92,121.05,287.53,Asteroid,NEO,Apollo
 25330 (1999 KV4),25330,1.54,0.3709,14.33,50.54,86.09,Asteroid,NEO,Apollo
 26379 (1999 HZ1),26379,1.606,0.5761,8.68,252.11,200.58,Asteroid,NEO,Apollo
 30825 (1990 TG1),30825,2.436,0.681,8.74,205.02,33.68,Asteroid,NEO,Apollo
 30997 (1995 UO5),30997,1.56,0.6434,36.26,38.62,151.16,Asteroid,NEO,Apollo
 31662 (1999 HP11),31662,1.598,0.5479,18.82,13.95,312.04,Asteroid,NEO,Apollo
 35670 (1998 SU27),35670,2.122,0.5964,7.14,271.34,169.83,Asteroid,NEO,Apollo
 36236 (1999 VV),36236,1.332,0.4237,58.04,241.07,19.77,Asteroid,NEO,Apollo
 36284 (2000 DM8),36284,1.484,0.5538,46.76,323.16,317.96,Asteroid,NEO,Apollo
 38086 Beowulf (1999 JB),38086,1.42,0.5663,23.67,165.33,178.97,Asteroid,NEO,Apollo
 38239 (1999 OR3),38239,2.036,0.5756,9.44,199.94,28.1,Asteroid,NEO,Apollo
 40267 (1999 GJ4),40267,1.339,0.8085,34.49,148.22,211.94,Asteroid,NEO,Apollo
 42286 (2001 TN41),42286,1.42,0.3917,24.07,55.83,150.91,Asteroid,NEO,Apollo
 52340 (1992 SY),52340,2.212,0.5473,8.08,5.26,116.33,Asteroid,NEO,Apollo
 52750 (1998 KK17),52750,1.427,0.5248,11.17,141.32,334.14,Asteroid,NEO,Apollo
 52762 (1998 MT24),52762,2.417,0.6527,33.85,309.02,254.45,Asteroid,NEO,Apollo
 53409 (1999 LU7),53409,2.101,0.6283,10.88,206.69,147.76,Asteroid,NEO,Apollo
 54509 YORP (2000 PH5),54509,1.006,0.23,1.6,278.2,278.98,Asteroid,NEO,Apollo
 55408 (2001 TC2),55408,1.1,0.2246,30.39,193.83,353.54,Asteroid,NEO,Apollo
 55532 (2001 WG2),55532,1.794,0.6957,38.54,81.41,132.38,Asteroid,NEO,Apollo
 65733 (1993 PC),65733,1.154,0.4743,4.15,336.92,168.69,Asteroid,NEO,Apollo
 66008 (1998 QH2),66008,1.426,0.3627,61.01,168.93,14.02,Asteroid,NEO,Apollo
 66253 (1999 GT3),66253,1.334,0.8378,19.5,157.37,261.09,Asteroid,NEO,Apollo
 67399 (2000 PJ6),67399,1.301,0.3462,14.69,332.88,225.29,Asteroid,NEO,Apollo
 68267 (2001 EA16),68267,1.51,0.4273,38.83,8.01,317.44,Asteroid,NEO,Apollo
 68348 (2001 LO7),68348,2.155,0.8409,25.36,236.22,181.64,Asteroid,NEO,Apollo
 85818 (1998 XM4),85818,1.657,0.4164,62.72,235.64,301.25,Asteroid,NEO,Apollo
 86666 (2000 FL10),86666,1.463,0.4269,29.01,186.92,258.85,Asteroid,NEO,Apollo
 86829 (2000 GR146),86829,1.463,0.5748,14.37,78.46,31.42,Asteroid,NEO,Apollo
 86878 (2000 HD24),86878,1.342,0.6185,9.47,230.99,214.91,Asteroid,NEO,Apollo
  1566 Icarus (1949 MA),1566,1.078,0.8269,22.8,87.95,31.44,Asteroid,PHA,Apollo
  1620 Geographos (1951 RA),1620,1.246,0.3355,13.34,337.17,276.96,Asteroid,PHA,Apollo
  1862 Apollo (1932 HA),1862,1.471,0.5599,6.35,35.56,286.06,Asteroid,PHA,Apollo
  1981 Midas (1973 EA),1981,1.777,0.65,39.83,356.85,267.82,Asteroid,PHA,Apollo
  2101 Adonis (1936 CA),2101,1.874,0.7643,1.32,349.47,43.63,Asteroid,PHA,Apollo
  2102 Tantalus (1975 YA),2102,1.29,0.2993,64,94.35,61.53,Asteroid,PHA,Apollo
  2135 Aristaeus (1977 HA),2135,1.6,0.5029,23.07,191.12,290.97,Asteroid,PHA,Apollo
  2201 Oljato (1947 XC),2201,2.177,0.7121,2.52,74.91,98.38,Asteroid,PHA,Apollo
  3200 Phaethon (1983 TB),3200,1.271,0.8899,22.27,265.17,322.22,Asteroid,PHA,Apollo
  3361 Orpheus (1982 HR),3361,1.21,0.3229,2.66,188.68,302.36,Asteroid,PHA,Apollo
  3671 Dionysus (1984 KD),3671,2.199,0.541,13.53,82.07,204.3,Asteroid,PHA,Apollo
  4015 Wilson-Harrington (1979 VA),4015,2.624,0.6317,2.8,266.77,95.45,Asteroid,PHA,Apollo
  4034 Vishnu (1986 PA),4034,1.06,0.444,11.17,157.9,296.7,Asteroid,PHA,Apollo
  4179 Toutatis (1989 AC),4179,2.544,0.6246,0.45,125.3,277.89,Asteroid,PHA,Apollo
  4183 Cuno (1959 LM),4183,1.981,0.636,6.67,294.35,237.04,Asteroid,PHA,Apollo
  4450 Pan (1987 SY),4450,1.442,0.5867,5.52,311.77,291.84,Asteroid,PHA,Apollo
  4486 Mithra (1987 SB),4486,2.2,0.6625,3.04,82.24,168.89,Asteroid,PHA,Apollo
